{"type": "FeatureCollection", "features": [ {"type": "Feature", "properties": {"norad_id": 29769, "name": "FENGYUN 1C DEB", "group": "fengyun-1c-debris", "lat": 43.4224201734522, "lon": -130.18225849131946, "alt_km": 775.8768565933806, "timestamp": "2025-12-09T20:37:09.558110+00:00", "meta": {"OBJECT_NAME": "FENGYUN 1C DEB", "OBJECT_ID": "1999-025BK", "EPOCH": "2025-12-09T14:53:08.146752", "MEAN_MOTION": 14.1350444, "ECCENTRICITY": 0.00939632, "INCLINATION": 99.1053, "RA_OF_ASC_NODE": 40.8449, "ARG_OF_PERICENTER": 139.133, "MEAN_ANOMALY": 221.6937, "EPHEMERIS_TYPE": 0, "CLASSIFICATION_TYPE": "U", "NORAD_CAT_ID": 29769, "ELEMENT_SET_NO": 999, "REV_AT_EPOCH": 96637, "BSTAR": 0.0020949433, "MEAN_MOTION_DOT": 4.069e-05, "MEAN_MOTION_DDOT": 0}, "tle": {"line1": "1 29769U 99025BK  25343.62023318  .00004069  00000+0  20949-2 0  9994", "line2": "2 29769  99.1053  40.8449 0093963 139.1330 221.6937 14.13504440966378"}}, "geometry": {"type": "Point", "coordinates": [-130.18225849131946, 43.4224201734522]}}, {"type": "Feature", "properties": {"norad_id": 29770, "name": "FENGYUN 1C DEB", "group": "fengyun-1c-debris", "lat": -33.24703315420649, "lon": -126.4294211606996, "alt_km": 812.5955932575362, "timestamp": "2025-12-09T20:37:09.558120+00:00", "meta": {"OBJECT_NAME": "FENGYUN 1C DEB", "OBJECT_ID": "1999-025BL", "EPOCH": "2025-12-09T11:14:57.865056", "MEAN_MOTION": 14.20084667, "ECCENTRICITY": 0.00624629, "INCLINATION": 98.8461, "RA_OF_ASC_NODE": 59.0399, "ARG_OF_PERICENTER": 280.6943, "MEAN_ANOMALY": 98.7624, "EPHEMERIS_TYPE": 0, "CLASSIFICATION_TYPE": "U", "NORAD_CAT_ID": 29770, "ELEMENT_SET_NO": 999, "REV_AT_EPOCH": 97040, "BSTAR": 0.0022574661, "MEAN_MOTION_DOT": 4.861e-05, "MEAN_MOTION_DDOT": 0}, "tle": {"line1": "1 29770U 99025BL  25343.46872529  .00004861  00000+0  22575-2 0  9991", "line2": "2 29770  98.8461  59.0399 0062462 280.6943  98.7624 14.20084667970404"}}, "geometry": {"type": "Point", "coordinates": [-126.4294211606996, -33.24703315420649]}}, {"type": "Feature", "properties": {"norad_id": 29772, "name": "FENGYUN 1C DEB", "group": "fengyun-1c-debris", "lat": -50.31474193903244, "lon": -156.48036983244597, "alt_km": 790.7223200889694, "timestamp": "2025-12-09T20:37:09.558131+00:00", "meta": {"OBJECT_NAME": "FENGYUN 1C DEB", "OBJECT_ID": "1999-025BN", "EPOCH": "2025-12-02T01:20:42.454752", "MEAN_MOTION": 14.03146146, "ECCENTRICITY": 0.01386122, "INCLINATION": 98.3877, "RA_OF_ASC_NODE": 186.0811, "ARG_OF_PERICENTER": 320.4428, "MEAN_ANOMALY": 193.9524, "EPHEMERIS_TYPE": 0, "CLASSIFICATION_TYPE": "U", "NORAD_CAT_ID": 29772, "ELEMENT_SET_NO": 999, "REV_AT_EPOCH": 96105, "BSTAR": 0.0011778651, "MEAN_MOTION_DOT": 1.956e-05, "MEAN_MOTION_DDOT": 0}, "tle": {"line1": "1 29772U 99025BN  25336.05604693  .00001956  00000+0  11779-2 0  9991", "line2": "2 29772  98.3877 186.0811 0138612 320.4428 193.9524 14.03146146961054"}}, "geometry": {"type": "Point", "coordinates": [-156.48036983244597, -50.31474193903244]}}, {"type": "Feature", "properties": {"norad_id": 29773, "name": "FENGYUN 1C DEB", "group": "fengyun-1c-debris", "lat": 73.52324051061622, "lon": -10.27155941207421, "alt_km": 824.9171164266445, "timestamp": "2025-12-09T20:37:09.558141+00:00", "meta": {"OBJECT_NAME": "FENGYUN 1C DEB", "OBJECT_ID": "1999-025BP", "EPOCH": "2025-12-09T10:19:25.397184", "MEAN_MOTION": 14.2756134, "ECCENTRICITY": 0.00463764, "INCLINATION": 98.9873, "RA_OF_ASC_NODE": 136.9389, "ARG_OF_PERICENTER": 300.3864, "MEAN_ANOMALY": 119.9105, "EPHEMERIS_TYPE": 0, "CLASSIFICATION_TYPE": "U", "NORAD_CAT_ID": 29773, "ELEMENT_SET_NO": 999, "REV_AT_EPOCH": 98150, "BSTAR": 0.00065139181, "MEAN_MOTION_DOT": 1.574e-05, "MEAN_MOTION_DDOT": 0}, "tle": {"line1": "1 29773U 99025BP  25343.43015506  .00001574  00000+0  65139-3 0  9997", "line2": "2 29773  98.9873 136.9389 0046376 300.3864 119.9105 14.27561340981505"}}, "geometry": {"type": "Point", "coordinates": [-10.27155941207421, 73.52324051061622]}}, {"type": "Feature", "properties": {"norad_id": 29774, "name": "FENGYUN 1C DEB", "group": "fengyun-1c-debris", "lat": 58.42607389172976, "lon": 119.17693709768062, "alt_km": 774.4314099810781, "timestamp": "2025-12-09T20:37:09.558170+00:00", "meta": {"OBJECT_NAME": "FENGYUN 1C DEB", "OBJECT_ID": "1999-025BQ", "EPOCH": "2025-12-09T14:08:02.984352", "MEAN_MOTION": 14.22728695, "ECCENTRICITY": 0.00509971, "INCLINATION": 99.0757, "RA_OF_ASC_NODE": 283.8237, "ARG_OF_PERICENTER": 132.1491, "MEAN_ANOMALY": 45.0577, "EPHEMERIS_TYPE": 0, "CLASSIFICATION_TYPE": "U", "NORAD_CAT_ID": 29774, "ELEMENT_SET_NO": 999, "REV_AT_EPOCH": 98030, "BSTAR": 0.00029753258, "MEAN_MOTION_DOT": 6.29e-06, "MEAN_MOTION_DDOT": 0}, "tle": {"line1": "1 29774U 99025BQ  25343.58892343  .00000629  00000+0  29753-3 0  9998", "line2": "2 29774  99.0757 283.8237 0050997 132.1491  45.0577 14.22728695980306"}}, "geometry": {"type": "Point", "coordinates": [119.17693709768062, 58.42607389172976]}}, {"type": "Feature", "properties": {"norad_id": 29776, "name": "FENGYUN 1C DEB", "group": "fengyun-1c-debris", "lat": 17.56990021008144, "lon": -166.5026827962902, "alt_km": 874.9118407383048, "timestamp": "2025-12-09T20:37:09.558181+00:00", "meta": {"OBJECT_NAME": "FENGYUN 1C DEB", "OBJECT_ID": "1999-025BS", "EPOCH": "2025-12-09T07:57:37.518336", "MEAN_MOTION": 14.07772608, "ECCENTRICITY": 0.0022803, "INCLINATION": 98.7714, "RA_OF_ASC_NODE": 10.1829, "ARG_OF_PERICENTER": 280.889, "MEAN_ANOMALY": 89.8086, "EPHEMERIS_TYPE": 0, "CLASSIFICATION_TYPE": "U", "NORAD_CAT_ID": 29776, "ELEMENT_SET_NO": 999, "REV_AT_EPOCH": 97032, "BSTAR": 0.00018395, "MEAN_MOTION_DOT": 2.69e-06, "MEAN_MOTION_DDOT": 0}, "tle": {"line1": "1 29776U 99025BS  25343.33168424  .00000269  00000+0  18395-3 0  9999", "line2": "2 29776  98.7714  10.1829 0022803 280.8890  89.8086 14.07772608970322"}}, "geometry": {"type": "Point", "coordinates": [-166.5026827962902, 17.56990021008144]}}, {"type": "Feature", "properties": {"norad_id": 29777, "name": "FENGYUN 1C DEB", "group": "fengyun-1c-debris", "lat": 10.525763712234257, "lon": 38.97588174967836, "alt_km": 982.8813009218147, "timestamp": "2025-12-09T20:37:09.558192+00:00", "meta": {"OBJECT_NAME": "FENGYUN 1C DEB", "OBJECT_ID": "1999-025BT", "EPOCH": "2025-12-09T10:18:42.575616", "MEAN_MOTION": 13.92102648, "ECCENTRICITY": 0.00925899, "INCLINATION": 99.2839, "RA_OF_ASC_NODE": 40.2875, "ARG_OF_PERICENTER": 218.7158, "MEAN_ANOMALY": 160.3786, "EPHEMERIS_TYPE": 0, "CLASSIFICATION_TYPE": "U", "NORAD_CAT_ID": 29777, "ELEMENT_SET_NO": 999, "REV_AT_EPOCH": 95995, "BSTAR": 0.00021456238, "MEAN_MOTION_DOT": 2.39e-06, "MEAN_MOTION_DDOT": 0}, "tle": {"line1": "1 29777U 99025BT  25343.42965944  .00000239  00000+0  21456-3 0  9991", "line2": "2 29777  99.2839  40.2875 0092589 218.7158 160.3786 13.92102648959959"}}, "geometry": {"type": "Point", "coordinates": [38.97588174967836, 10.525763712234257]}}, {"type": "Feature", "properties": {"norad_id": 29779, "name": "FENGYUN 1C DEB", "group": "fengyun-1c-debris", "lat": 69.26102762742062, "lon": -161.03197991295602, "alt_km": 820.2125991296207, "timestamp": "2025-12-09T20:37:09.558203+00:00", "meta": {"OBJECT_NAME": "FENGYUN 1C DEB", "OBJECT_ID": "1999-025BV", "EPOCH": "2025-12-08T23:42:57.791232", "MEAN_MOTION": 14.13437355, "ECCENTRICITY": 0.0063321, "INCLINATION": 98.6773, "RA_OF_ASC_NODE": 354.3378, "ARG_OF_PERICENTER": 174.8347, "MEAN_ANOMALY": 185.3493, "EPHEMERIS_TYPE": 0, "CLASSIFICATION_TYPE": "U", "NORAD_CAT_ID": 29779, "ELEMENT_SET_NO": 999, "REV_AT_EPOCH": 97359, "BSTAR": 0.0003246, "MEAN_MOTION_DOT": 5.8e-06, "MEAN_MOTION_DDOT": 0}, "tle": {"line1": "1 29779U 99025BV  25342.98816888  .00000580  00000+0  32460-3 0  9991", "line2": "2 29779  98.6773 354.3378 0063321 174.8347 185.3493 14.13437355973590"}}, "geometry": {"type": "Point", "coordinates": [-161.03197991295602, 69.26102762742062]}}, {"type": "Feature", "properties": {"norad_id": 29780, "name": "FENGYUN 1C DEB", "group": "fengyun-1c-debris", "lat": 22.31052252733619, "lon": 88.48931841599386, "alt_km": 794.43843194686, "timestamp": "2025-12-09T20:37:09.558213+00:00", "meta": {"OBJECT_NAME": "FENGYUN 1C DEB", "OBJECT_ID": "1999-025BW", "EPOCH": "2025-12-08T18:32:07.991808", "MEAN_MOTION": 14.20998637, "ECCENTRICITY": 0.00402093, "INCLINATION": 99.2776, "RA_OF_ASC_NODE": 263.5028, "ARG_OF_PERICENTER": 139.7211, "MEAN_ANOMALY": 220.6955, "EPHEMERIS_TYPE": 0, "CLASSIFICATION_TYPE": "U", "NORAD_CAT_ID": 29780, "ELEMENT_SET_NO": 999, "REV_AT_EPOCH": 97022, "BSTAR": 0.0027990967, "MEAN_MOTION_DOT": 6.074e-05, "MEAN_MOTION_DDOT": 0}, "tle": {"line1": "1 29780U 99025BW  25342.77231472  .00006074  00000+0  27991-2 0  9996", "line2": "2 29780  99.2776 263.5028 0040209 139.7211 220.6955 14.20998637970221"}}, "geometry": {"type": "Point", "coordinates": [88.48931841599386, 22.31052252733619]}}, {"type": "Feature", "properties": {"norad_id": 29781, "name": "FENGYUN 1C DEB", "group": "fengyun-1c-debris", "lat": -80.846332968164, "lon": 52.33404828839537, "alt_km": 883.9213817271038, "timestamp": "2025-12-09T20:37:09.558223+00:00", "meta": {"OBJECT_NAME": "FENGYUN 1C DEB", "OBJECT_ID": "1999-025BX", "EPOCH": "2025-12-09T11:30:28.596096", "MEAN_MOTION": 14.05217141, "ECCENTRICITY": 0.00717042, "INCLINATION": 98.8095, "RA_OF_ASC_NODE": 337.7281, "ARG_OF_PERICENTER": 182.2387, "MEAN_ANOMALY": 329.9657, "EPHEMERIS_TYPE": 0, "CLASSIFICATION_TYPE": "U", "NORAD_CAT_ID": 29781, "ELEMENT_SET_NO": 999, "REV_AT_EPOCH": 96597, "BSTAR": 0.00087924584, "MEAN_MOTION_DOT": 1.412e-05, "MEAN_MOTION_DDOT": 0}, "tle": {"line1": "1 29781U 99025BX  25343.47949764  .00001412  00000+0  87925-3 0  9990", "line2": "2 29781  98.8095 337.7281 0071704 182.2387 329.9657 14.05217141965972"}}, "geometry": {"type": "Point", "coordinates": [52.33404828839537, -80.846332968164]}}]}